#dP2023  5 22 12  0  0.00000000      96 __u+U ITR00 EXT  IAC
## 2263 129600.00000000   900.00000000 60086 0.5000000000000
+  119   C06C07C08C09C10C11C12C13C14C16C19C20C21C22C23C24C25
+        C26C27C28C29C30C32C33C34C35C36C37C38C39C40C41C42C43
+        C44C45C46E02E03E04E05E07E08E09E10E11E12E13E14E15E18
+        E19E21E24E25E26E27E30E31E33E34E36G01G02G03G04G05G06
+        G07G08G09G10G11G12G13G14G15G16G17G18G19G20G21G22G23
+        G24G25G26G27G28G29G30G31G32J02J03J04R01R02R03R04R05
+        R07R08R09R11R12R13R14R15R16R17R18R19R20R21R22R24R25
++        10  9 12  8  8  7  8 16 10 11  9  9  8  7  9  8  8
++         7  9  8  8  8  7  8  9  8  8  9  9 11 10  8  9  9
++         9  9  8  9  8  7  8  7  7  7  7  7  7  8  7  7  8
++         8 10 10  9  8 10 10 10  8  7  7  7  7  7  7  8  6
++         7  7  8  7  7  7  7  7  7  7  7  7  6  8  7  8  8
++         7  9  8  7  8  8  7  7  7  8  9 10  8  7  8  8  7
++         9  7  7  7  9  8  7  8  8  9  8  8  9  8  7  8  8
%c M  cc GPS ccc cccc cccc cccc cccc ccccc ccccc ccccc ccccc
%c cc cc ccc ccc cccc cccc cccc cccc ccccc ccccc ccccc ccccc
%f  0.0000000  0.000000000  0.00000000000  0.000000000000000
%f  0.0000000  0.000000000  0.00000000000  0.000000000000000
%i    0    0    0    0      0      0      0      0         0
%i    0    0    0    0      0      0      0      0         0
/* IAC                                ULTRA-RAPID PREDICTION
/* S/V CLOCKS ARE ALIGNED TO GNSS TIME                      
/* G:C1WC2W R:C1PC2P E:C1XC5X C:C2IC6I J:C1CC2S             
/* PCV:IGS20_2247 OL/AL:FES2004  NONE     YN ORB:CoN CLK:CoN
*  2023 05 23 10 15  0.00000000
PC06 -17917.472585  33527.795412 -18490.798460   -188.264673
PC07  -4397.167902  37224.950270 -19090.575160    -61.348842
PC08  -5694.232568  19747.487245  36813.231812    478.752193
PC09 -10423.329296  31803.534564 -25545.624473    620.950079
PC10   2875.743301  39852.069290 -12327.791495    -65.875639
PC11 -13093.097974  -8135.589162 -23201.744245    634.539544
PC12   2222.159165 -21825.868787 -17220.206719    659.291499
PC13   2523.174950  23015.652838  35426.286250    280.760239
PC14 -17464.696980 -17799.667550  12612.124776    300.418740
PC16 -21374.010227  33149.544549 -15072.376152     68.912677
PC19  18224.737362   8622.365958 -19253.225006   -913.461117
PC20  14519.664707  23142.963261  -5571.063203    550.428087
PC21  -1702.178462 -24853.860158 -12589.394385   -916.850423
PC22  11617.293221 -11652.141677 -22541.852685   -475.087610
PC23 -22955.595050   7653.873101 -13893.226770   -936.197533
PC24 -15356.363788 -14705.931582  18055.253466    -21.845573
PC25 -27573.598894  -3700.739975   2043.556583    132.256253
PC26   3732.526241 -15970.490416  22566.655827   -124.318644
PC27  -8940.886476  24269.030493  10471.460549    144.342840
PC28 -19336.400093  19262.743907  -5812.552039    106.902533
PC29  18844.580147  -2257.901932  20446.874507    124.158347
PC30   6919.302682  16441.529759  21453.268609     -0.498196
PC32   1782.520342  24783.331706  12700.573723   -558.339784
PC33 -18335.416762  -8627.527401  19205.021319   -884.996561
PC34  -8048.459653 -15377.573525 -21863.544283    176.914600
PC35  18863.189978 -19498.494465   6439.754388    622.071541
PC36  27351.869884   4812.051143  -2730.372149   -425.281827
PC37  -5379.472916  15662.695677 -22444.357688   -784.064030
PC38 -14954.079075  19110.825281  34497.118562     80.227957
PC39 -23201.874004  33870.543226 -10063.496577     -3.048855
PC40  -7985.254676  34606.081799 -22558.408362    -24.040195
PC41 -12059.761310  10991.830203  22691.861505   -937.876784
PC42 -13981.698609 -23789.566512   4322.802737   -679.878707
PC43 -18645.075255   1294.201545 -20743.605982     22.731665
PC44   8070.733735 -24631.494226 -10315.819054    115.361362
PC45  22640.973666  -7846.649172  14321.108062   -101.146767
PC46  16859.448899  14134.312901 -17186.893339    -56.118027
PE02 -22303.484554 -19332.417459   2140.658625     39.779000
PE03 -12042.240485 -17799.808150  20365.504949    -19.192378
PE04  17311.896860  -3592.655749 -23727.231148   -128.535530
PE05    435.866361 -29187.080537   4937.734298    -64.833707
PE07 -12644.489206  23152.867995  13423.593459    -47.183493
PE08 -17166.844868   3258.839363  23897.256301    -87.471715
PE09  12591.206800 -23091.299080 -13589.149965    -24.519619
PE10  27002.464592 -12064.683671  -1237.426435   -535.797551
PE11  21510.943181 -16820.456762 -11418.291522   2008.840274
PE12  27855.722668  -5721.875669   8166.913576   -550.264398
PE13 -22074.219436  16563.408706  10715.787807    -19.207141
PE14 -17220.642644 -12328.632245 -23386.754098    233.182608
PE15 -27804.305881   5550.344244  -8522.320759    -23.897678
PE18  17036.368847  -3941.364992  18531.026326     96.771353
PE19  10480.450832  20181.473288 -18934.350226  -2468.604919
PE21   8117.052082  22006.269696 -18057.261231   -530.739206
PE24  12327.348639 -11580.623534  24277.976666   -114.378602
PE25  -7785.969289 -21942.375975  18280.725201   -605.535912
PE26  -2602.659386  17699.147775  23580.386898    112.515500
PE27 -11587.298817  12156.477627 -24373.685553    -56.464338
PE30 -24430.358017  -5274.121735 -15862.591292   -195.831108
PE31  24266.513538   4746.385676  16277.248190   -524.353502
PE33  17064.247301   8657.698195  22576.844189   -444.089275
PE34 -17221.452717  -8534.671568 -22521.013780    -46.915101
PE36   3476.296747 -17737.409842 -23441.603740    -60.316522
PG01   1110.363024 -15514.462147 -21808.056485    183.295060
PG02  21132.591920 -14445.936620  -6300.928744   -593.311794
PG03  -8911.584606 -20408.168972 -14699.622184   -294.742906
PG04   -725.097452 -25092.457533   8513.144173     48.774958
PG05  -6920.066133  13505.643488  21614.990552   -128.274243
PG06 -25436.361135   4589.333462  -6277.015504    587.646310
PG07 -15059.604442  -9870.639190  20133.175766    171.246015
PG08   6365.360927 -25294.062420   3654.441586   -123.808439
PG09  -8771.828577 -18921.132726  16349.994329   -152.574323
PG10  22471.802387   9265.501496 -10890.784992    -38.104933
PG11 -21821.993966  12662.011459   8250.388987   -207.287828
PG12   4746.952613  20496.551825 -16539.383524   -379.497372
PG13 -13275.656997  20968.476395   8991.161438    523.906191
PG14 -22311.822005 -11816.635054  -8478.851635     66.359090
PG15  -2858.366088  26079.567131   2632.172964     42.114283
PG16  11462.021136  -9688.527326  21618.959066   -498.511166
PG17 -14241.266314  -3753.428513 -21676.778832    715.823675
PG18  17575.065648   7334.689965  18577.563518   -277.942713
PG19 -16102.149339   5087.724159 -20647.578298    320.692294
PG20 -14956.785147   8150.508851  20366.558215    432.038047
PG21   9733.267655 -17309.444100 -16643.714900    153.652720
PG22  15885.841481  -9287.145775 -18641.934090    486.016343
PG23  20692.508023  16779.202518    451.420330     26.562778
PG24  -4625.907306  17899.053698 -19280.587059   -198.929767
PG25  15715.593170  20180.822322  -7963.700735    444.801028
PG26  20362.582526   -770.987404  17092.075011    240.407935
PG27  12603.935207 -18739.646374  13388.015411     31.571105
PG28  24971.369979  -3912.547230  -8174.321411     79.804562
PG29   4859.724560  21408.075509  14832.158482   -600.416572
PG30 -23125.429499  -2178.349393  13230.064576   -515.560379
PG31  24578.951351 -10309.232105   2682.525549   -216.676677
PG32  15229.510863    589.268590 -21562.472514   -483.276608
PJ02 -23147.063668  18129.072285 -25589.575862     -0.094086
PJ03 -28850.217358  30839.829514   6446.793194      4.757883
PJ04 -26693.233128  26313.149942  25287.379076     94.728004
PR01 -12443.967836 -13189.351532  17955.012001     58.025772
PR02  -9580.464938   6141.287585  22882.867639    -22.798581
PR03  -1639.101367  21323.768818  13994.895009     78.330923
PR04   6866.197729  24452.369056  -2386.111513    188.280583
PR05  11687.025408  14414.669905 -17495.504609    112.995684
PR07   1183.853252 -21736.384129 -13214.664227     56.462477
PR08  -7175.229891 -24317.072815   2741.168078    -70.914506
PR09  21398.824040  -1383.999712  13769.533979    121.727788
PR11 -10785.803387 -12557.834914  19424.748983    -62.185549
PR12 -23774.862796  -8556.936624   3471.084926     27.497453
PR13 -22396.921231    -79.792092 -12221.379442    -35.344314
PR14  -6739.234466   9527.842315 -22670.487556     24.692677
PR15  11835.497420  12738.014573 -18640.074216     89.191698
PR16  23747.815919   8459.777497  -3757.131085     14.840847
PR17 -14469.232841  19077.594560   8744.273146    632.453068
PR18  -1789.526624  14473.946466  20950.127789     82.933390
PR19  10907.932536   3895.665538  22719.458362   -233.629905
PR20  20327.343488 -11935.903020   9693.198123    -93.343871
PR21  13717.555772 -18976.325633 -10153.887612     -9.623738
PR22   1152.563529 -14156.709512 -21162.212187     80.942358
PR24 -20072.624903  12896.014570  -8998.603654    172.767025
PR25  15372.185134 -18490.768054  -8539.362954     61.825800
EOF
